*******************************************************************************
Ephemeris / WWW_USER Mon Mar 24 12:05:35 2025 Pasadena, USA      / Horizons    
*******************************************************************************
Target body name: 768325 (2015 BP519)             {source: JPL#13}
Center body name: Earth (399)                     {source: DE441}
Center-site name: Gemini South Obs., Cerro Pachon
*******************************************************************************
Start time      : A.D. 2018-Aug-02 22:19:00.0000 UT      
Stop  time      : A.D. 2018-Aug-03 11:18:00.0000 UT      
Step-size       : 1 minutes
*******************************************************************************
Target pole/equ : undefined
Target radii    : undefined                                                    
Center geodetic : 289.2634, -30.2406227, 2.71233  {E-lon(deg),Lat(deg),Alt(km)}
Center cylindric: 289.2634,5517.21435,-3194.81213 {E-lon(deg),Dxy(km),Dz(km)}
Center pole/equ : ITRF93                          {East-longitude positive}
Center radii    : 6378.137, 6378.137, 6356.752 km {Equator_a, b, pole_c}       
Target primary  : Sun
Vis. interferer : MOON (R_eq= 1737.400) km        {source: DE441}
Rel. light bend : Sun                             {source: DE441}
Rel. lght bnd GM: 1.3271E+11 km^3/s^2                                          
Small-body perts: Yes                             {source: SB441-N16}
Atmos refraction: NO (AIRLESS)
RA format       : HMS
Time format     : CAL 
Calendar mode   : Mixed Julian/Gregorian
RTS-only print  : NO       
EOP file        : eop.250321.p250617                                           
EOP coverage    : DATA-BASED 1962-JAN-20 TO 2025-MAR-21. PREDICTS-> 2025-JUN-16
Units conversion: 1 au= 149597870.700 km, c= 299792.458 km/s, 1 day= 86400.0 s 
Table cut-offs 1: Elevation (-90.0deg=NO ),Airmass (>38.000=NO), Daylight (YES)
Table cut-offs 2: Solar elongation (  0.0,180.0=NO ),Local Hour Angle( 0.0=NO )
Table cut-offs 3: RA/DEC angular rate (     0.0=NO )                           
*******************************************************************************
Initial IAU76/J2000 heliocentric ecliptic osculating elements (au, days, deg.):
  EPOCH=  2459486.5 ! 2021-Sep-29.00 (TDB)         Residual RMS= .071772       
   EC= .9216453194433936   QR= 35.32438628437644   TP= 2473006.6899544764      
   OM= 135.0347983875217   W=  347.957608556413    IN= 54.13315864151695       
  Equivalent ICRF heliocentric cartesian coordinates (au, au/d):
   X= 1.447262462803667E+01  Y= 4.058013389773870E+01  Z=-2.635496110070412E+01
  VX=-2.666905795807619E-03 VY= 1.989051018714909E-05 VZ= 1.987184001515517E-03
Asteroid physical parameters (km, seconds, rotational period in hours):        
   GM= n.a.                RAD= n.a.               ROTPER= n.a.                
   H= 4.34                 G= .150                 B-V= n.a.                   
                           ALBEDO= n.a.            STYP= n.a.                  
*******************************************************************************
 Date__(UT)__HR:MN     R.A._________(ICRF)_________DEC
******************************************************
$$SOE
 2018-Aug-03 02:25     04 30 59.100908 -32 26 07.62542
 2018-Aug-03 02:26     04 30 59.103197 -32 26 07.65340
 2018-Aug-03 02:27     04 30 59.105486 -32 26 07.68138
 2018-Aug-03 02:28     04 30 59.107774 -32 26 07.70936
 2018-Aug-03 02:29     04 30 59.110063 -32 26 07.73734
 2018-Aug-03 02:30     04 30 59.112351 -32 26 07.76532
 2018-Aug-03 02:31     04 30 59.114639 -32 26 07.79331
 2018-Aug-03 02:32     04 30 59.116927 -32 26 07.82129
 2018-Aug-03 02:33     04 30 59.119215 -32 26 07.84928
 2018-Aug-03 02:34     04 30 59.121503 -32 26 07.87727
 2018-Aug-03 02:35     04 30 59.123790 -32 26 07.90526
 2018-Aug-03 02:36     04 30 59.126078 -32 26 07.93325
 2018-Aug-03 02:37     04 30 59.128365 -32 26 07.96124
 2018-Aug-03 02:38     04 30 59.130652 -32 26 07.98924
 2018-Aug-03 02:39     04 30 59.132939 -32 26 08.01723
 2018-Aug-03 02:40     04 30 59.135226 -32 26 08.04523
 2018-Aug-03 02:41     04 30 59.137513 -32 26 08.07323
 2018-Aug-03 02:42     04 30 59.139799 -32 26 08.10123
 2018-Aug-03 02:43     04 30 59.142086 -32 26 08.12923
 2018-Aug-03 02:44     04 30 59.144372 -32 26 08.15724
 2018-Aug-03 02:45     04 30 59.146658 -32 26 08.18524
 2018-Aug-03 02:46     04 30 59.148944 -32 26 08.21325
 2018-Aug-03 02:47     04 30 59.151229 -32 26 08.24126
 2018-Aug-03 02:48     04 30 59.153515 -32 26 08.26927
 2018-Aug-03 02:49     04 30 59.155800 -32 26 08.29728
 2018-Aug-03 02:50     04 30 59.158086 -32 26 08.32529
 2018-Aug-03 02:51     04 30 59.160371 -32 26 08.35331
 2018-Aug-03 02:52     04 30 59.162656 -32 26 08.38132
 2018-Aug-03 02:53     04 30 59.164940 -32 26 08.40934
 2018-Aug-03 02:54     04 30 59.167225 -32 26 08.43736
 2018-Aug-03 02:55     04 30 59.169509 -32 26 08.46538
 2018-Aug-03 02:56     04 30 59.171794 -32 26 08.49340
 2018-Aug-03 02:57     04 30 59.174078 -32 26 08.52142
 2018-Aug-03 02:58     04 30 59.176362 -32 26 08.54945
 2018-Aug-03 02:59     04 30 59.178645 -32 26 08.57747
 2018-Aug-03 03:00     04 30 59.180929 -32 26 08.60550
 2018-Aug-03 03:01     04 30 59.183212 -32 26 08.63353
 2018-Aug-03 03:02     04 30 59.185496 -32 26 08.66156
 2018-Aug-03 03:03     04 30 59.187779 -32 26 08.68959
 2018-Aug-03 03:04     04 30 59.190062 -32 26 08.71763
 2018-Aug-03 03:05     04 30 59.192344 -32 26 08.74566
 2018-Aug-03 03:06     04 30 59.194627 -32 26 08.77370
 2018-Aug-03 03:07     04 30 59.196909 -32 26 08.80173
 2018-Aug-03 03:08     04 30 59.199192 -32 26 08.82977
 2018-Aug-03 03:09     04 30 59.201474 -32 26 08.85781
 2018-Aug-03 03:10     04 30 59.203755 -32 26 08.88585
 2018-Aug-03 03:11     04 30 59.206037 -32 26 08.91390
 2018-Aug-03 03:12     04 30 59.208319 -32 26 08.94194
 2018-Aug-03 03:13     04 30 59.210600 -32 26 08.96999
 2018-Aug-03 03:14     04 30 59.212881 -32 26 08.99803
 2018-Aug-03 03:15     04 30 59.215162 -32 26 09.02608
 2018-Aug-03 03:16     04 30 59.217443 -32 26 09.05413
 2018-Aug-03 03:17     04 30 59.219723 -32 26 09.08218
 2018-Aug-03 03:18     04 30 59.222004 -32 26 09.11024
 2018-Aug-03 03:19     04 30 59.224284 -32 26 09.13829
 2018-Aug-03 03:20     04 30 59.226564 -32 26 09.16634
 2018-Aug-03 03:21     04 30 59.228844 -32 26 09.19440
 2018-Aug-03 03:22     04 30 59.231124 -32 26 09.22246
 2018-Aug-03 03:23     04 30 59.233403 -32 26 09.25052
 2018-Aug-03 03:24  m  04 30 59.235682 -32 26 09.27858
 2018-Aug-03 03:25  m  04 30 59.237962 -32 26 09.30664
 2018-Aug-03 03:26  m  04 30 59.240241 -32 26 09.33470
 2018-Aug-03 03:27  m  04 30 59.242519 -32 26 09.36277
 2018-Aug-03 03:28  m  04 30 59.244798 -32 26 09.39083
 2018-Aug-03 03:29  m  04 30 59.247076 -32 26 09.41890
 2018-Aug-03 03:30  m  04 30 59.249354 -32 26 09.44697
 2018-Aug-03 03:31  m  04 30 59.251632 -32 26 09.47504
 2018-Aug-03 03:32  m  04 30 59.253910 -32 26 09.50311
 2018-Aug-03 03:33  m  04 30 59.256188 -32 26 09.53118
 2018-Aug-03 03:34  m  04 30 59.258465 -32 26 09.55926
 2018-Aug-03 03:35  m  04 30 59.260742 -32 26 09.58733
 2018-Aug-03 03:36  m  04 30 59.263019 -32 26 09.61541
 2018-Aug-03 03:37  m  04 30 59.265296 -32 26 09.64348
 2018-Aug-03 03:38  m  04 30 59.267573 -32 26 09.67156
 2018-Aug-03 03:39  m  04 30 59.269849 -32 26 09.69964
 2018-Aug-03 03:40  m  04 30 59.272126 -32 26 09.72772
 2018-Aug-03 03:41  m  04 30 59.274402 -32 26 09.75581
 2018-Aug-03 03:42  m  04 30 59.276677 -32 26 09.78389
 2018-Aug-03 03:43  m  04 30 59.278953 -32 26 09.81198
 2018-Aug-03 03:44  m  04 30 59.281229 -32 26 09.84006
 2018-Aug-03 03:45  m  04 30 59.283504 -32 26 09.86815
 2018-Aug-03 03:46  m  04 30 59.285779 -32 26 09.89624
 2018-Aug-03 03:47  m  04 30 59.288054 -32 26 09.92433
 2018-Aug-03 03:48  m  04 30 59.290328 -32 26 09.95242
 2018-Aug-03 03:49  m  04 30 59.292603 -32 26 09.98051
 2018-Aug-03 03:50  m  04 30 59.294877 -32 26 10.00861
 2018-Aug-03 03:51  m  04 30 59.297151 -32 26 10.03670
 2018-Aug-03 03:52  m  04 30 59.299425 -32 26 10.06480
 2018-Aug-03 03:53  m  04 30 59.301698 -32 26 10.09289
 2018-Aug-03 03:54  m  04 30 59.303972 -32 26 10.12099
 2018-Aug-03 03:55  m  04 30 59.306245 -32 26 10.14909
 2018-Aug-03 03:56  m  04 30 59.308518 -32 26 10.17719
 2018-Aug-03 03:57  m  04 30 59.310791 -32 26 10.20529
 2018-Aug-03 03:58  m  04 30 59.313063 -32 26 10.23340
 2018-Aug-03 03:59  m  04 30 59.315336 -32 26 10.26150
 2018-Aug-03 04:00  m  04 30 59.317608 -32 26 10.28961
 2018-Aug-03 04:01  m  04 30 59.319880 -32 26 10.31771
 2018-Aug-03 04:02  m  04 30 59.322152 -32 26 10.34582
 2018-Aug-03 04:03  m  04 30 59.324423 -32 26 10.37393
 2018-Aug-03 04:04  m  04 30 59.326695 -32 26 10.40204
 2018-Aug-03 04:05  m  04 30 59.328966 -32 26 10.43015
 2018-Aug-03 04:06  m  04 30 59.331237 -32 26 10.45826
 2018-Aug-03 04:07  m  04 30 59.333507 -32 26 10.48638
 2018-Aug-03 04:08  m  04 30 59.335778 -32 26 10.51449
 2018-Aug-03 04:09  m  04 30 59.338048 -32 26 10.54261
 2018-Aug-03 04:10  m  04 30 59.340318 -32 26 10.57072
 2018-Aug-03 04:11  m  04 30 59.342588 -32 26 10.59884
 2018-Aug-03 04:12  m  04 30 59.344857 -32 26 10.62696
 2018-Aug-03 04:13  m  04 30 59.347127 -32 26 10.65508
 2018-Aug-03 04:14  m  04 30 59.349396 -32 26 10.68320
 2018-Aug-03 04:15  m  04 30 59.351665 -32 26 10.71132
 2018-Aug-03 04:16  m  04 30 59.353934 -32 26 10.73945
 2018-Aug-03 04:17  m  04 30 59.356202 -32 26 10.76757
 2018-Aug-03 04:18  m  04 30 59.358471 -32 26 10.79570
 2018-Aug-03 04:19  m  04 30 59.360739 -32 26 10.82382
 2018-Aug-03 04:20  m  04 30 59.363006 -32 26 10.85195
 2018-Aug-03 04:21  m  04 30 59.365274 -32 26 10.88008
 2018-Aug-03 04:22  m  04 30 59.367542 -32 26 10.90821
 2018-Aug-03 04:23  m  04 30 59.369809 -32 26 10.93634
 2018-Aug-03 04:24  m  04 30 59.372076 -32 26 10.96447
 2018-Aug-03 04:25  m  04 30 59.374342 -32 26 10.99260
 2018-Aug-03 04:26  m  04 30 59.376609 -32 26 11.02074
 2018-Aug-03 04:27  m  04 30 59.378875 -32 26 11.04887
